#aV2009  8 28  0  0   .00000000      96 DD+AD WGS84 FIT  NGA
## 1546 432000.00000000   900.00000000 55071  .0000000000000
+   32     1  2  3  4  5  6  7  8  9 10 11 12 13 14 15 16 17
+         18 19 20 21 22 23 24 25 26 27 28 29 30 31 32  0  0
+          0  0  0  0  0  0  0  0  0  0  0  0  0  0  0  0  0
+          0  0  0  0  0  0  0  0  0  0  0  0  0  0  0  0  0
+          0  0  0  0  0  0  0  0  0  0  0  0  0  0  0  0  0
++         0  0  0  0  0  0  0  0  0  0  0  0  0  0  0  0  0
++         0  0  0  0  0  0  0  0  0  0  0  0  0  0  0  0  0
++         0  0  0  0  0  0  0  0  0  0  0  0  0  0  0  0  0
++         0  0  0  0  0  0  0  0  0  0  0  0  0  0  0  0  0
++         0  0  0  0  0  0  0  0  0  0  0  0  0  0  0  0  0
%c cc cc ccc ccc cccc cccc cccc cccc ccccc ccccc ccccc ccccc
%c cc cc ccc ccc cccc cccc cccc cccc ccccc ccccc ccccc ccccc
%f  0.0000000  0.000000000  0.00000000000  0.000000000000000
%f  0.0000000  0.000000000  0.00000000000  0.000000000000000
%i    0    0    0    0      0      0      0      0         0
%i    0    0    0    0      0      0      0      0         0
/*      NGA, ST. LOUIS,MO.                                  
/*   EPHEMERIS COMPUTED FROM  3 DAYS OF DATA                
/* CCCCCCCCCCCCCCCCCCCCCCCCCCCCCCCCCCCCCCCCCCCCCCCCCCCCCCCCC
/* CCCCCCCCCCCCCCCCCCCCCCCCCCCCCCCCCCCCCCCCCCCCCCCCCCCCCCCCC
*  2009  8 28 14 30   .00000000                                                 
P  1  15389.404806   9026.805946  19609.625220    -58.067508                    
V  1   3001.448456  24927.949958 -13659.436187       .006388                    
P  2  -1414.488924  15921.202637  21179.882229    168.289407                    
V  2 -25577.554437  -8952.618864   4583.319196       .026004                    
P  3   4205.688007 -21139.520707 -15616.095492    439.641122                    
V  3  15585.049849 -12031.893977  21284.214368       .049408                    
P  4 -13820.345602  10413.621012  20101.822867   -239.972308                    
V  4 -23718.263195 -10240.738932 -10561.403704      -.171365                    
P  5  -6857.518684  21056.810840  14618.575790   -101.860061                    
V  5  -5114.567999 -18043.049640  23570.912294       .142831                    
P  6   9489.076149 -21139.726200 -12721.824416    228.417063                    
V  6  14348.161369  -8781.891667  25015.017122       .077204                    
P  7 -25470.585604  -6300.329079  -4619.576385     12.548606                    
V  7  -4575.729663  -4310.059709  31112.335318      -.007061                    
P  8 -21375.872533   1862.377303 -16033.549903   -218.761251                    
V  8 -17816.865977  -9165.821759  22249.589156      -.017211                    
P  9  17972.335169  15335.903276 -12857.175845     74.417723                    
V  9 -14928.012808  -3377.004091 -26203.610712       .020677                    
P 10    772.915459  26046.669126   3936.289598    -22.258875                    
V 10  -3888.601026  -4766.494721  31354.211534      -.008809                    
P 11 -21020.146090 -12277.827918 -11247.919255    -17.095983                    
V 11  14439.798642  -1848.629492 -25097.617996      -.017609                    
P 12  11745.669239  20514.353276  12289.386900   -227.513838                    
V 12    346.602533  15588.342703 -26353.961785       .058260                    
P 13 -21117.385298   2557.465856  15786.944719    303.840835                    
V 13  15679.874124 -12811.591535  22847.583192       .005445                    
P 14  21837.726405 -14862.527887  -1841.976279    -58.818882                    
V 14   -765.624869   3141.131000 -32326.524808       .053363                    
P 15   1671.963740  17173.089650 -20148.665615   -316.231760                    
V 15 -20385.508797  15650.852183  11699.521556      -.015369                    
P 16   3355.848556 -24387.962626   9689.953162     18.464179                    
V 16   4124.120262  11851.292733  28777.924649      -.038151                    
P 17 -21709.028353  14917.387562  -2377.479755     80.619336                    
V 17    607.639601  -4285.823988 -31678.741388       .027118                    
P 18  15749.780921   1684.808677 -21109.476260      8.529381                    
V 18   3292.231330  27218.447067   4198.114244       .028185                    
P 19  -2929.111146 -15925.676181 -20952.968493     13.253435                    
V 19  22468.732912 -14615.752301   8212.761068      -.016166                    
P 20 -13460.150596 -18474.977904  13443.015198     73.659240                    
V 20   -551.069407 -17502.285661 -24339.060532      -.009328                    
P 21  25418.781386   4298.143796  -7342.238985     -5.806139                    
V 21   7775.973277   6333.629679  28869.724848      -.022553                    
P 22  12912.442341 -12157.228311 -19582.229757    192.305409                    
V 22   4661.422623  24939.437290 -12385.252890      -.007956                    
P 23 -12735.684026  -8742.942261  21598.662543    389.129822                    
V 23  21208.369150 -17432.850058   5141.444114      -.003433                    
P 24  22290.120796  13440.236074   4678.765787    216.024356                    
V 24  -6665.674199    664.366532  30926.337270       .030653                    
P 25 -24424.945725  -9520.096389   3905.371552    571.682603                    
V 25   5088.676067  -1289.385021  31585.208116       .156578                    
P 26  23374.599822  -8163.726470 -10849.201279     63.948570                    
V 26  -9695.147861   8318.793348 -28139.215397      -.006022                    
P 27  14421.934081  15486.350860 -15378.561675     78.014883                    
V 27 -20339.492065  -4478.858747 -22576.843785       .031819                    
P 28 -13188.525150   9113.674769 -20679.388247    -26.222568                    
V 28  -4458.343982 -26970.576295  -9163.095972       .000605                    
P 29  20120.692190   -140.112052  17412.673589     52.595544                    
V 29 -16329.380658  14748.326015  19137.593597       .032450                    
P 30  15527.497191  10664.632171  18369.969315    172.324216                    
V 30   3254.479931  23955.273582 -16250.679333       .030857                    
P 31  11334.669639 -11286.475657  21433.282229    -64.837486                    
V 31  24762.817010   9914.572723  -7812.797087       .002165                    
P 32  -7874.558175 -24122.912794   8693.744366    206.970396                    
V 32   1457.274467 -10561.638620 -29029.985096      -.068056                    
EOF
